[{"OBJECT_NAME":"CAPELLA-14 (ACADIA-4)","OBJECT_ID":"2024-066C","EPOCH":"2026-03-09T23:09:20.349504","MEAN_MOTION":15.10553849,"ECCENTRICITY":0.00038755,"INCLINATION":45.6044,"RA_OF_ASC_NODE":58.5628,"ARG_OF_PERICENTER":114.4902,"MEAN_ANOMALY":245.6389,"EPHEMERIS_TYPE":0,"CLASSIFICATION_TYPE":"U","NORAD_CAT_ID":59444,"ELEMENT_SET_NO":999,"REV_AT_EPOCH":9746,"BSTAR":0.0014196844,"MEAN_MOTION_DOT":0.00023618,"MEAN_MOTION_DDOT":0},{"OBJECT_NAME":"DELTA 2 R\/B(1)","OBJECT_ID":"1992-027B","EPOCH":"2026-03-09T19:59:41.933472","MEAN_MOTION":12.22373025,"ECCENTRICITY":0.13573244,"INCLINATION":19.674,"RA_OF_ASC_NODE":269.5661,"ARG_OF_PERICENTER":106.1474,"MEAN_ANOMALY":269.2214,"EPHEMERIS_TYPE":0,"CLASSIFICATION_TYPE":"U","NORAD_CAT_ID":21965,"ELEMENT_SET_NO":999,"REV_AT_EPOCH":50381,"BSTAR":0.00066052045,"MEAN_MOTION_DOT":2.218e-5,"MEAN_MOTION_DDOT":0}]
